[{"id":"41601","name":"SKYSAT-C1","tle1":"1 41601U 16040C   26176.03214709  .00009889  00000+0  28038-3 0  9998","tle2":"2 41601  96.9566 207.3269 0002751  42.5631 317.5827 15.36420055559070"},{"id":"41603","name":"LAPAN-A3","tle1":"1 41603U 16040E   26176.28445649  .00003966  00000+0  12601-3 0  9995","tle2":"2 41603  97.1489 172.1639 0009855 357.7807   2.3390 15.33152345556057"},{"id":"41727","name":"GAOFEN-3","tle1":"1 41727U 16049A   26176.27058131  .00000019  00000+0  18926-4 0  9999","tle2":"2 41727  98.4016 183.9347 0001571  97.6337 262.5031 14.42216336519810"},{"id":"41771","name":"SKYSAT-C4","tle1":"1 41771U 16058B   26176.02112240  .00018357  00000+0  34275-3 0  9991","tle2":"2 41771  96.9176 197.4653 0001938 139.7950 220.3446 15.48811540546687"},{"id":"41772","name":"SKYSAT-C5","tle1":"1 41772U 16058C   26176.05950599  .00008147  00000+0  24544-3 0  9996","tle2":"2 41772  97.0471 216.3485 0001046 233.3226 126.7922 15.34570645544958"},{"id":"41773","name":"SKYSAT-C2","tle1":"1 41773U 16058D   26176.30537604  .00014708  00000+0  34388-3 0  9990","tle2":"2 41773  97.0170 198.0950 0004010  53.2233 306.9383 15.42240769546303"},{"id":"41774","name":"SKYSAT-C3","tle1":"1 41774U 16058E   26176.07039601  .00025486  00000+0  41170-3 0  9991","tle2":"2 41774  96.9009 206.6140 0001236 114.3829 245.7554 15.52850947547337"},{"id":"41785","name":"ALSAT-1B","tle1":"1 41785U 16059C   26176.25984721  .00000422  00000+0  74192-4 0  9990","tle2":"2 41785  97.7754 184.6755 0008705 191.4874 168.6137 14.72280255521765"},{"id":"41787","name":"PATHFINDER 1","tle1":"1 41787U 16059E   26176.31773751  .00000551  00000+0  10448-3 0  9994","tle2":"2 41787  97.8166 175.2271 0028479 177.3779 182.7581 14.67671314520900"},{"id":"41790","name":"SCATSAT 1","tle1":"1 41790U 16059H   26176.19361631  .00001129  00000+0  15481-3 0  9998","tle2":"2 41790  98.1187 240.0424 0053741 221.1538 138.5615 14.79541526102775"},{"id":"41875","name":"GOKTURK 1A","tle1":"1 41875U 16073A   26176.24899221  .00000392  00000+0  86101-4 0  9994","tle2":"2 41875  98.1243  70.7966 0001430  75.4159 284.7201 14.62779653510008"},{"id":"41877","name":"RESOURCESAT-2A","tle1":"1 41877U 16074A   26176.30549814  .00000039  00000+0  37900-4 0  9995","tle2":"2 41877  98.7524 249.7437 0003222  68.8639 291.2883 14.21618850495455"},{"id":"41948","name":"CARTOSAT-2D","tle1":"1 41948U 17008A   26176.25979579  .00003816  00000+0  18420-3 0  9992","tle2":"2 41948  97.4105 235.4151 0004543 199.6706 160.4354 15.19259452518807"},{"id":"42063","name":"SENTINEL-2B","tle1":"1 42063U 17013A   26176.31937719  .00000039  00000+0  31690-4 0  9993","tle2":"2 42063  98.5689 250.9792 0001177  87.8036 272.3282 14.30818944485807"},{"id":"42767","name":"CARTOSAT-2E","tle1":"1 42767U 17036C   26176.34330429  .00002698  00000+0  13133-3 0  9991","tle2":"2 42767  97.4275 236.0115 0002186 281.4839  78.6150 15.19220759499383"},{"id":"42920","name":"FORMOSAT-5","tle1":"1 42920U 17049A   26176.25952948  .00000127  00000+0  43262-4 0  9994","tle2":"2 42920  98.2252 251.3899 0012491  61.9672 298.2785 14.50901422467840"},{"id":"42969","name":"SENTINEL-5P","tle1":"1 42969U 17064A   26175.60290817  .00000031  00000+0  35782-4 0  9994","tle2":"2 42969  98.7925 117.6816 0000996  88.6862 271.4428 14.19520089450617"},{"id":"42987","name":"SKYSAT-C11","tle1":"1 42987U 17068A   26176.21376193  .00032896  00000+0  43494-3 0  9990","tle2":"2 42987  97.4351 325.3965 0000465 119.3250 240.8053 15.58280009484499"},{"id":"42988","name":"SKYSAT-C10","tle1":"1 42988U 17068B   26175.66015941  .00008862  00000+0  26548-3 0  9997","tle2":"2 42988  97.4508 312.5809 0001156 104.1677 255.9695 15.34747943483501"},{"id":"42989","name":"SKYSAT-C9","tle1":"1 42989U 17068C   26176.28753619  .00015037  00000+0  35704-3 0  9994","tle2":"2 42989  97.4428 314.2268 0009576 107.7457 252.4836 15.41746317484007"},{"id":"42990","name":"SKYSAT-C8","tle1":"1 42990U 17068D   26175.35971873  .00009069  00000+0  25205-3 0  9990","tle2":"2 42990  97.4524 312.1047 0001379  95.7824 264.3578 15.37097162483416"},{"id":"42991","name":"SKYSAT-C7","tle1":"1 42991U 17068E   26176.19988273  .00011967  00000+0  33178-3 0  9994","tle2":"2 42991  97.4535 313.9462 0007102  83.4452 276.7600 15.37070823483609"},{"id":"42992","name":"SKYSAT-C6","tle1":"1 42992U 17068F   26176.29966563  .00010293  00000+0  31424-3 0  9997","tle2":"2 42992  97.4570 313.9863 0005133 128.7652 231.4050 15.34091293483564"},{"id":"43111","name":"CARTOSAT-2F","tle1":"1 43111U 18004A   26176.24390674  .00005523  00000+0  26509-3 0  9999","tle2":"2 43111  97.4786 235.8003 0001568 175.2441 184.8808 15.19271177468554"},{"id":"43259","name":"GAOFEN-1 02","tle1":"1 43259U 18031A   26176.29550696  .00000646  00000+0  10029-3 0  9990","tle2":"2 43259  98.0525 238.7999 0003067  11.4102 348.7177 14.76418483443897"},{"id":"43260","name":"GAOFEN-1 03","tle1":"1 43260U 18031B   26176.00247395  .00000106  00000+0  22651-4 0  9996","tle2":"2 43260  98.0515 238.3654 0003706  63.6994 296.4595 14.76433937443849"},{"id":"43262","name":"GAOFEN-1 04","tle1":"1 43262U 18031D   26176.31714926  .00000155  00000+0  29742-4 0  9993","tle2":"2 43262  98.0526 238.8707 0002048  67.1109 293.0317 14.76442204443888"},{"id":"43437","name":"SENTINEL-3B","tle1":"1 43437U 18039A   26176.18451976  .00000095  00000+0  57471-4 0  9996","tle2":"2 43437  98.6245 243.6020 0000735 104.6006 255.5256 14.26736833425268"},{"id":"43461","name":"GAOFEN-5 01","tle1":"1 43461U 18043A   26175.93980608  .00000297  00000+0  71184-4 0  9990","tle2":"2 43461  98.4572 147.6889 0002932  69.8088 290.3427 14.60610186432822"},{"id":"43484","name":"GAOFEN-6","tle1":"1 43484U 18048A   26176.27083799  .00000186  00000+0  34260-4 0  9994","tle2":"2 43484  98.0451 238.9314 0011542 139.2781 220.9293 14.76428270434588"}]